SL-16 R/B               
1 25407U 98045B   26075.00078479  .00000264  00000+0  15752-3 0  9993
2 25407  71.0120 168.3028 0007146 358.2866   1.8232 14.16193648427995
ISS (ZARYA)             
1 25544U 98067A   26075.16062931  .00008402  00000+0  16433-3 0  9991
2 25544  51.6332  40.3661 0006342 195.9803 164.0986 15.48306205557333
CZ-4B R/B               
1 25732U 99025C   26075.15450736  .00000067  00000+0  53404-4 0  9997
2 25732  98.6612 119.2825 0036415 327.7863  86.2608 14.18266706389085
OKEAN-O                 
1 25860U 99039A   26075.14091274  .00000719  00000+0  10118-3 0  9999
2 25860  97.9428 134.9664 0001057  73.0371 287.0956 14.80346720435340
SL-16 R/B               
1 25861U 99039B   26075.18223448  .00000576  00000+0  79869-4 0  9994
2 25861  97.9950 134.2689 0013706 233.1545 126.8412 14.81741141437826
DELTA 2 R/B             
1 25876U 99041E   26075.23780427  .00001076  00000+0  21181-3 0  9993
2 25876  51.7615 275.1243 0502541   7.7484 353.0855 14.11857833363952
HELIOS 1B               
1 25977U 99064A   26075.17063596  .00001511  00000+0  17215-3 0  9991
2 25977  98.1691 337.6041 0002322  66.4392 293.7067 14.87726763686228
TERRA                   
1 25994U 99068A   26075.29026800  .00000463  00000+0  10336-3 0  9996
2 25994  97.9579 128.4724 0003092 137.0038 285.9136 14.61022228396045
SL-16 R/B               
1 26070U 00006B   26075.15913839 -.00000195  00000+0 -74535-4 0  9994
2 26070  71.0003  84.2329 0016401 180.3382 179.7733 14.15824385349478
TITAN 4B R/B            
1 26474U 00047B   26075.25593163  .00004482  00000+0  28139-3 0  9991
2 26474  67.9907  22.0449 0038769  27.6019 332.7176 15.09632424393901
ENVISAT                 
1 27386U 02009A   26075.13817972  .00000102  00000+0  47039-4 0  9994
2 27386  98.3737  28.5823 0001307  82.6749 287.9099 14.39039327260104
IDEFIX & ARIANE 42P R/B 
1 27422U 02021B   26075.06832941  .00000241  00000+0  10806-3 0  9999
2 27422  98.5876  13.5986 0011953 163.3132 196.8446 14.31030589244936
