CCSDS_OMM_VERS = 2.0
CREATION_DATE  = 
ORIGINATOR     = 

OBJECT_NAME    = SL-16 R/B
OBJECT_ID      = 1998-045B
CENTER_NAME    = EARTH
REF_FRAME      = TEME
TIME_SYSTEM    = UTC
MEAN_ELEMENT_THEORY = SGP/SGP4

EPOCH          = 2026-03-16T00:01:07.805856
MEAN_MOTION    = 14.16193648
ECCENTRICITY   = .00071466
INCLINATION    = 71.0120
RA_OF_ASC_NODE = 168.3028
ARG_OF_PERICENTER = 358.2866
MEAN_ANOMALY   = 1.8232

EPHEMERIS_TYPE = 0
CLASSIFICATION_TYPE = U
NORAD_CAT_ID   = 25407
ELEMENT_SET_NO = 999
REV_AT_EPOCH   = 42799
BSTAR          = .15752441E-3
MEAN_MOTION_DOT = .264E-5
MEAN_MOTION_DDOT = 0

CCSDS_OMM_VERS = 2.0
CREATION_DATE  = 
ORIGINATOR     = 

OBJECT_NAME    = ISS (ZARYA)
OBJECT_ID      = 1998-067A
CENTER_NAME    = EARTH
REF_FRAME      = TEME
TIME_SYSTEM    = UTC
MEAN_ELEMENT_THEORY = SGP/SGP4

EPOCH          = 2026-03-16T03:51:18.372384
MEAN_MOTION    = 15.48306205
ECCENTRICITY   = .00063428
INCLINATION    = 51.6332
RA_OF_ASC_NODE = 40.3661
ARG_OF_PERICENTER = 195.9803
MEAN_ANOMALY   = 164.0986

EPHEMERIS_TYPE = 0
CLASSIFICATION_TYPE = U
NORAD_CAT_ID   = 25544
ELEMENT_SET_NO = 999
REV_AT_EPOCH   = 55733
BSTAR          = .16433499E-3
MEAN_MOTION_DOT = .8402E-4
MEAN_MOTION_DDOT = 0

CCSDS_OMM_VERS = 2.0
CREATION_DATE  = 
ORIGINATOR     = 

OBJECT_NAME    = CZ-4B R/B
OBJECT_ID      = 1999-025C
CENTER_NAME    = EARTH
REF_FRAME      = TEME
TIME_SYSTEM    = UTC
MEAN_ELEMENT_THEORY = SGP/SGP4

EPOCH          = 2026-03-16T03:42:29.435904
MEAN_MOTION    = 14.18266706
ECCENTRICITY   = .00364158
INCLINATION    = 98.6612
RA_OF_ASC_NODE = 119.2825
ARG_OF_PERICENTER = 327.7863
MEAN_ANOMALY   = 86.2608

EPHEMERIS_TYPE = 0
CLASSIFICATION_TYPE = U
NORAD_CAT_ID   = 25732
ELEMENT_SET_NO = 999
REV_AT_EPOCH   = 38908
BSTAR          = .53404182E-4
MEAN_MOTION_DOT = .67E-6
MEAN_MOTION_DDOT = 0

CCSDS_OMM_VERS = 2.0
CREATION_DATE  = 
ORIGINATOR     = 

OBJECT_NAME    = OKEAN-O
OBJECT_ID      = 1999-039A
CENTER_NAME    = EARTH
REF_FRAME      = TEME
TIME_SYSTEM    = UTC
MEAN_ELEMENT_THEORY = SGP/SGP4

EPOCH          = 2026-03-16T03:22:54.860736
MEAN_MOTION    = 14.80346720
ECCENTRICITY   = .00010571
INCLINATION    = 97.9428
RA_OF_ASC_NODE = 134.9664
ARG_OF_PERICENTER = 73.0371
MEAN_ANOMALY   = 287.0956

EPHEMERIS_TYPE = 0
CLASSIFICATION_TYPE = U
NORAD_CAT_ID   = 25860
ELEMENT_SET_NO = 999
REV_AT_EPOCH   = 43534
BSTAR          = .10117509E-3
MEAN_MOTION_DOT = .719E-5
MEAN_MOTION_DDOT = 0

CCSDS_OMM_VERS = 2.0
CREATION_DATE  = 
ORIGINATOR     = 

OBJECT_NAME    = SL-16 R/B
OBJECT_ID      = 1999-039B
CENTER_NAME    = EARTH
REF_FRAME      = TEME
TIME_SYSTEM    = UTC
MEAN_ELEMENT_THEORY = SGP/SGP4

EPOCH          = 2026-03-16T04:22:25.059072
MEAN_MOTION    = 14.81741141
ECCENTRICITY   = .00137069
INCLINATION    = 97.9950
RA_OF_ASC_NODE = 134.2689
ARG_OF_PERICENTER = 233.1545
MEAN_ANOMALY   = 126.8412

EPHEMERIS_TYPE = 0
CLASSIFICATION_TYPE = U
NORAD_CAT_ID   = 25861
ELEMENT_SET_NO = 999
REV_AT_EPOCH   = 43782
BSTAR          = .79868773E-4
MEAN_MOTION_DOT = .576E-5
MEAN_MOTION_DDOT = 0

CCSDS_OMM_VERS = 2.0
CREATION_DATE  = 
ORIGINATOR     = 

OBJECT_NAME    = DELTA 2 R/B
OBJECT_ID      = 1999-041E
CENTER_NAME    = EARTH
REF_FRAME      = TEME
TIME_SYSTEM    = UTC
MEAN_ELEMENT_THEORY = SGP/SGP4

EPOCH          = 2026-03-16T05:42:26.288928
MEAN_MOTION    = 14.11857833
ECCENTRICITY   = .05025413
INCLINATION    = 51.7615
RA_OF_ASC_NODE = 275.1243
ARG_OF_PERICENTER = 7.7484
MEAN_ANOMALY   = 353.0855

EPHEMERIS_TYPE = 0
CLASSIFICATION_TYPE = U
NORAD_CAT_ID   = 25876
ELEMENT_SET_NO = 999
REV_AT_EPOCH   = 36395
BSTAR          = .21181432E-3
MEAN_MOTION_DOT = .1076E-4
MEAN_MOTION_DDOT = 0

CCSDS_OMM_VERS = 2.0
CREATION_DATE  = 
ORIGINATOR     = 

OBJECT_NAME    = HELIOS 1B
OBJECT_ID      = 1999-064A
CENTER_NAME    = EARTH
REF_FRAME      = TEME
TIME_SYSTEM    = UTC
MEAN_ELEMENT_THEORY = SGP/SGP4

EPOCH          = 2026-03-16T04:05:42.946944
MEAN_MOTION    = 14.87726763
ECCENTRICITY   = .00023223
INCLINATION    = 98.1691
RA_OF_ASC_NODE = 337.6041
ARG_OF_PERICENTER = 66.4392
MEAN_ANOMALY   = 293.7067

EPHEMERIS_TYPE = 0
CLASSIFICATION_TYPE = U
NORAD_CAT_ID   = 25977
ELEMENT_SET_NO = 999
REV_AT_EPOCH   = 68622
BSTAR          = .17215198E-3
MEAN_MOTION_DOT = .1511E-4
MEAN_MOTION_DDOT = 0

CCSDS_OMM_VERS = 2.0
CREATION_DATE  = 
ORIGINATOR     = 

OBJECT_NAME    = TERRA
OBJECT_ID      = 1999-068A
CENTER_NAME    = EARTH
REF_FRAME      = TEME
TIME_SYSTEM    = UTC
MEAN_ELEMENT_THEORY = SGP/SGP4

EPOCH          = 2026-03-16T06:57:59.155200
MEAN_MOTION    = 14.61022228
ECCENTRICITY   = .00030925
INCLINATION    = 97.9579
RA_OF_ASC_NODE = 128.4724
ARG_OF_PERICENTER = 137.0038
MEAN_ANOMALY   = 285.9136

EPHEMERIS_TYPE = 0
CLASSIFICATION_TYPE = U
NORAD_CAT_ID   = 25994
ELEMENT_SET_NO = 999
REV_AT_EPOCH   = 39604
BSTAR          = .10336014E-3
MEAN_MOTION_DOT = .463E-5
MEAN_MOTION_DDOT = 0

CCSDS_OMM_VERS = 2.0
CREATION_DATE  = 
ORIGINATOR     = 

OBJECT_NAME    = SL-16 R/B
OBJECT_ID      = 2000-006B
CENTER_NAME    = EARTH
REF_FRAME      = TEME
TIME_SYSTEM    = UTC
MEAN_ELEMENT_THEORY = SGP/SGP4

EPOCH          = 2026-03-16T03:49:09.556896
MEAN_MOTION    = 14.15824385
ECCENTRICITY   = .00164015
INCLINATION    = 71.0003
RA_OF_ASC_NODE = 84.2329
ARG_OF_PERICENTER = 180.3382
MEAN_ANOMALY   = 179.7733

EPHEMERIS_TYPE = 0
CLASSIFICATION_TYPE = U
NORAD_CAT_ID   = 26070
ELEMENT_SET_NO = 999
REV_AT_EPOCH   = 34947
BSTAR          = -.74534833E-4
MEAN_MOTION_DOT = -.195E-5
MEAN_MOTION_DDOT = 0

CCSDS_OMM_VERS = 2.0
CREATION_DATE  = 
ORIGINATOR     = 

OBJECT_NAME    = TITAN 4B R/B
OBJECT_ID      = 2000-047B
CENTER_NAME    = EARTH
REF_FRAME      = TEME
TIME_SYSTEM    = UTC
MEAN_ELEMENT_THEORY = SGP/SGP4

EPOCH          = 2026-03-16T06:08:32.492832
MEAN_MOTION    = 15.09632424
ECCENTRICITY   = .00387695
INCLINATION    = 67.9907
RA_OF_ASC_NODE = 22.0449
ARG_OF_PERICENTER = 27.6019
MEAN_ANOMALY   = 332.7176

EPHEMERIS_TYPE = 0
CLASSIFICATION_TYPE = U
NORAD_CAT_ID   = 26474
ELEMENT_SET_NO = 999
REV_AT_EPOCH   = 39390
BSTAR          = .28138858E-3
MEAN_MOTION_DOT = .4482E-4
MEAN_MOTION_DDOT = 0

CCSDS_OMM_VERS = 2.0
CREATION_DATE  = 
ORIGINATOR     = 

OBJECT_NAME    = ENVISAT
OBJECT_ID      = 2002-009A
CENTER_NAME    = EARTH
REF_FRAME      = TEME
TIME_SYSTEM    = UTC
MEAN_ELEMENT_THEORY = SGP/SGP4

EPOCH          = 2026-03-16T03:18:58.727808
MEAN_MOTION    = 14.39039327
ECCENTRICITY   = .00013074
INCLINATION    = 98.3737
RA_OF_ASC_NODE = 28.5823
ARG_OF_PERICENTER = 82.6749
MEAN_ANOMALY   = 287.9099

EPHEMERIS_TYPE = 0
CLASSIFICATION_TYPE = U
NORAD_CAT_ID   = 27386
ELEMENT_SET_NO = 999
REV_AT_EPOCH   = 26010
BSTAR          = .47039237E-4
MEAN_MOTION_DOT = .102E-5
MEAN_MOTION_DDOT = 0

CCSDS_OMM_VERS = 2.0
CREATION_DATE  = 
ORIGINATOR     = 

OBJECT_NAME    = IDEFIX & ARIANE 42P R/B
OBJECT_ID      = 2002-021B
CENTER_NAME    = EARTH
REF_FRAME      = TEME
TIME_SYSTEM    = UTC
MEAN_ELEMENT_THEORY = SGP/SGP4

EPOCH          = 2026-03-16T01:38:23.661024
MEAN_MOTION    = 14.31030589
ECCENTRICITY   = .00119539
INCLINATION    = 98.5876
RA_OF_ASC_NODE = 13.5986
ARG_OF_PERICENTER = 163.3132
MEAN_ANOMALY   = 196.8446

EPHEMERIS_TYPE = 0
CLASSIFICATION_TYPE = U
NORAD_CAT_ID   = 27422
ELEMENT_SET_NO = 999
REV_AT_EPOCH   = 24493
BSTAR          = .10806074E-3
MEAN_MOTION_DOT = .241E-5
MEAN_MOTION_DDOT = 0

